FLOCK 4G-21             
1 62651U 25009AU  26068.19487675  .00013648  00000+0  49619-3 0  9998
2 62651  97.4032 151.1274 0000465 329.5782  30.5431 15.28381075 63677
STARLINK-36488          
1 67306U 26002B   26068.41525493  .00036487  00000+0  13291-2 0  9992
2 67306  43.0006 327.1045 0000433 359.2069   0.8782 15.27575874 11034
